{
  "type": "FeatureCollection",
  "features": [
    {
      "type": "Feature",
      "properties": {
        "norad_id": 30013,
        "name": "FENGYUN 1C DEB",
        "group": "fengyun-1c-debris",
        "lat": -25.537528577137888,
        "lon": -172.79043014799012,
        "alt_km": 1035.2763222171916,
        "timestamp": "2025-12-18T07:01:54.862887+00:00",
        "meta_object_name": "FENGYUN 1C DEB",
        "meta_object_id": "1999-025MN",
        "meta_epoch": "2025-12-17T20:30:01.807776",
        "meta_mean_motion": 13.878287,
        "meta_eccentricity": 0.01280729,
        "meta_inclination": 99.5798,
        "meta_ra_of_asc_node": 11.3876,
        "meta_arg_of_pericenter": 30.462,
        "meta_mean_anomaly": 144.0646,
        "meta_ephemeris_type": 0,
        "meta_classification_type": "U",
        "meta_norad_cat_id": 30013,
        "meta_element_set_no": 999,
        "meta_rev_at_epoch": 95752,
        "meta_bstar": 0.00023263426,
        "meta_mean_motion_dot": 2.48e-06,
        "meta_mean_motion_ddot": 0,
        "tle_line1": "1 30013U 99025MN  25351.85418759  .00000248  00000+0  23263-3 0  9997",
        "tle_line2": "2 30013  99.5798  11.3876 0128072  30.4620 144.0646 13.87828700957524"
      },
      "geometry": {
        "type": "Point",
        "coordinates": [
          -172.79043014799012,
          -25.537528577137888
        ]
      }
    },
    {
      "type": "Feature",
      "properties": {
        "norad_id": 30015,
        "name": "FENGYUN 1C DEB",
        "group": "fengyun-1c-debris",
        "lat": -18.096277109500882,
        "lon": 172.4669179772155,
        "alt_km": 793.406181141283,
        "timestamp": "2025-12-18T07:01:54.862897+00:00",
        "meta_object_name": "FENGYUN 1C DEB",
        "meta_object_id": "1999-025MQ",
        "meta_epoch": "2025-12-17T23:29:46.468320",
        "meta_mean_motion": 14.3081426,
        "meta_eccentricity": 0.00386417,
        "meta_inclination": 99.2283,
        "meta_ra_of_asc_node": 355.1792,
        "meta_arg_of_pericenter": 110.0321,
        "meta_mean_anomaly": 271.3369,
        "meta_ephemeris_type": 0,
        "meta_classification_type": "U",
        "meta_norad_cat_id": 30015,
        "meta_element_set_no": 999,
        "meta_rev_at_epoch": 98248,
        "meta_bstar": 0.00046325344,
        "meta_mean_motion_dot": 1.175e-05,
        "meta_mean_motion_ddot": 0,
        "tle_line1": "1 30015U 99025MQ  25351.97901005  .00001175  00000+0  46325-3 0  9997",
        "tle_line2": "2 30015  99.2283 355.1792 0038641 110.0321 271.3369 14.30814260982487"
      },
      "geometry": {
        "type": "Point",
        "coordinates": [
          172.4669179772155,
          -18.096277109500882
        ]
      }
    },
    {
      "type": "Feature",
      "properties": {
        "norad_id": 30016,
        "name": "FENGYUN 1C DEB",
        "group": "fengyun-1c-debris",
        "lat": -19.152523242583023,
        "lon": -178.27879276666374,
        "alt_km": 671.1999913739246,
        "timestamp": "2025-12-18T07:01:54.862908+00:00",
        "meta_object_name": "FENGYUN 1C DEB",
        "meta_object_id": "1999-025MR",
        "meta_epoch": "2025-12-17T17:24:16.104960",
        "meta_mean_motion": 14.78639008,
        "meta_eccentricity": 0.00465052,
        "meta_inclination": 98.9048,
        "meta_ra_of_asc_node": 4.215,
        "meta_arg_of_pericenter": 25.5903,
        "meta_mean_anomaly": 32.9125,
        "meta_ephemeris_type": 0,
        "meta_classification_type": "U",
        "meta_norad_cat_id": 30016,
        "meta_element_set_no": 999,
        "meta_rev_at_epoch": 99527,
        "meta_bstar": 0.0014243422,
        "meta_mean_motion_dot": 0.00010573,
        "meta_mean_motion_ddot": 0,
        "tle_line1": "1 30016U 99025MR  25351.72518640  .00010573  00000+0  14243-2 0  9995",
        "tle_line2": "2 30016  98.9048   4.2150 0046505  25.5903  32.9125 14.78639008995276"
      },
      "geometry": {
        "type": "Point",
        "coordinates": [
          -178.27879276666374,
          -19.152523242583023
        ]
      }
    },
    {
      "type": "Feature",
      "properties": {
        "norad_id": 30017,
        "name": "FENGYUN 1C DEB",
        "group": "fengyun-1c-debris",
        "lat": -8.584726553285355,
        "lon": 38.53991444602688,
        "alt_km": 842.8048911789747,
        "timestamp": "2025-12-18T07:01:54.862918+00:00",
        "meta_object_name": "FENGYUN 1C DEB",
        "meta_object_id": "1999-025MS",
        "meta_epoch": "2025-12-17T16:16:54.940224",
        "meta_mean_motion": 14.61207516,
        "meta_eccentricity": 0.02177218,
        "meta_inclination": 98.7542,
        "meta_ra_of_asc_node": 36.5566,
        "meta_arg_of_pericenter": 159.8955,
        "meta_mean_anomaly": 201.0989,
        "meta_ephemeris_type": 0,
        "meta_classification_type": "U",
        "meta_norad_cat_id": 30017,
        "meta_element_set_no": 999,
        "meta_rev_at_epoch": 516,
        "meta_bstar": 0.00013349595,
        "meta_mean_motion_dot": 8.54e-06,
        "meta_mean_motion_ddot": 0,
        "tle_line1": "1 30017U 99025MS  25351.67841366  .00000854  00000+0  13350-3 0  9994",
        "tle_line2": "2 30017  98.7542  36.5566 0217721 159.8955 201.0989 14.61207516  5165"
      },
      "geometry": {
        "type": "Point",
        "coordinates": [
          38.53991444602688,
          -8.584726553285355
        ]
      }
    },
    {
      "type": "Feature",
      "properties": {
        "norad_id": 30018,
        "name": "FENGYUN 1C DEB",
        "group": "fengyun-1c-debris",
        "lat": -80.49841028224266,
        "lon": -171.69210337134766,
        "alt_km": 654.5701258218987,
        "timestamp": "2025-12-18T07:01:54.862928+00:00",
        "meta_object_name": "FENGYUN 1C DEB",
        "meta_object_id": "1999-025MT",
        "meta_epoch": "2025-12-17T18:59:50.339040",
        "meta_mean_motion": 14.73237405,
        "meta_eccentricity": 0.01168332,
        "meta_inclination": 98.7565,
        "meta_ra_of_asc_node": 74.8269,
        "meta_arg_of_pericenter": 179.6414,
        "meta_mean_anomaly": 307.4199,
        "meta_ephemeris_type": 0,
        "meta_classification_type": "U",
        "meta_norad_cat_id": 30018,
        "meta_element_set_no": 999,
        "meta_rev_at_epoch": 511,
        "meta_bstar": 0.00063966546,
        "meta_mean_motion_dot": 4.542e-05,
        "meta_mean_motion_ddot": 0,
        "tle_line1": "1 30018U 99025MT  25351.79155485  .00004542  00000+0  63967-3 0  9995",
        "tle_line2": "2 30018  98.7565  74.8269 0116833 179.6414 307.4199 14.73237405  5110"
      },
      "geometry": {
        "type": "Point",
        "coordinates": [
          -171.69210337134766,
          -80.49841028224266
        ]
      }
    },
    {
      "type": "Feature",
      "properties": {
        "norad_id": 30020,
        "name": "FENGYUN 1C DEB",
        "group": "fengyun-1c-debris",
        "lat": 67.66387689903867,
        "lon": -26.31163110274071,
        "alt_km": 742.2074742134091,
        "timestamp": "2025-12-18T07:01:54.862938+00:00",
        "meta_object_name": "FENGYUN 1C DEB",
        "meta_object_id": "1999-025MV",
        "meta_epoch": "2025-12-17T14:09:53.504640",
        "meta_mean_motion": 14.04474985,
        "meta_eccentricity": 0.01840429,
        "meta_inclination": 98.847,
        "meta_ra_of_asc_node": 355.2792,
        "meta_arg_of_pericenter": 56.9721,
        "meta_mean_anomaly": 60.5207,
        "meta_ephemeris_type": 0,
        "meta_classification_type": "U",
        "meta_norad_cat_id": 30020,
        "meta_element_set_no": 999,
        "meta_rev_at_epoch": 96726,
        "meta_bstar": 0.00035445134,
        "meta_mean_motion_dot": 6.16e-06,
        "meta_mean_motion_ddot": 0,
        "tle_line1": "1 30020U 99025MV  25351.59020260  .00000616  00000+0  35445-3 0  9996",
        "tle_line2": "2 30020  98.8470 355.2792 0184042  56.9721  60.5207 14.04474985967261"
      },
      "geometry": {
        "type": "Point",
        "coordinates": [
          -26.31163110274071,
          67.66387689903867
        ]
      }
    },
    {
      "type": "Feature",
      "properties": {
        "norad_id": 30021,
        "name": "FENGYUN 1C DEB",
        "group": "fengyun-1c-debris",
        "lat": -57.848855217030675,
        "lon": 149.34699028381462,
        "alt_km": 839.8837509501054,
        "timestamp": "2025-12-18T07:01:54.862949+00:00",
        "meta_object_name": "FENGYUN 1C DEB",
        "meta_object_id": "1999-025MW",
        "meta_epoch": "2025-12-17T21:37:59.092896",
        "meta_mean_motion": 14.0489496,
        "meta_eccentricity": 0.00718095,
        "meta_inclination": 98.8356,
        "meta_ra_of_asc_node": 343.2932,
        "meta_arg_of_pericenter": 272.4723,
        "meta_mean_anomaly": 147.3061,
        "meta_ephemeris_type": 0,
        "meta_classification_type": "U",
        "meta_norad_cat_id": 30021,
        "meta_element_set_no": 999,
        "meta_rev_at_epoch": 97004,
        "meta_bstar": 7.3494483e-05,
        "meta_mean_motion_dot": 7.7e-07,
        "meta_mean_motion_ddot": 0,
        "tle_line1": "1 30021U 99025MW  25351.90137839  .00000077  00000+0  73494-4 0  9991",
        "tle_line2": "2 30021  98.8356 343.2932 0071809 272.4723 147.3061 14.04894960970042"
      },
      "geometry": {
        "type": "Point",
        "coordinates": [
          149.34699028381462,
          -57.848855217030675
        ]
      }
    }
  ]
}